GLOBALSTAR M001         
1 25162U 98008A   25060.92250927 -.00000044  00000+0  40367-3 0  9991
2 25162  52.0028 285.4300 0002176  44.6901  57.6341 12.38208322230425
GLOBALSTAR M002         
1 25164U 98008C   25060.59350193 -.00000053  00000+0  45788-3 0  9994
2 25164  52.0003 149.9770 0000621 307.3296  52.7467 11.61508269171566
GLOBALSTAR M003         
1 25165U 98008D   25060.60891138 -.00000016  00000+0  78047-3 0  9999
2 25165  51.9988 106.4640 0008288  78.7956  86.6003 12.12073367220267
GLOBALSTAR M014         
1 25306U 98023A   25061.18000269 -.00000070  00000+0  13963-3 0  9990
2 25306  51.9835  73.9795 0001203 156.1837 281.9875 11.65478546178683
GLOBALSTAR M006         
1 25307U 98023B   25061.19005003 -.00000050  00000+0  52950-3 0  9990
2 25307  51.9927 122.4299 0003052 263.8456 129.4717 11.58172565204542
GLOBALSTAR M008         
1 25309U 98023D   25060.78610000 -.00000044  00000+0  40654-3 0  9996
2 25309  51.9962 149.4374 0001920 312.3633 196.8949 12.36063514224564
